{
  "type": "FeatureCollection",
  "features": [
    {
      "type": "Feature",
      "properties": {
        "norad_id": 66909,
        "name": "SILVERSAT",
        "group": "stations",
        "lat": 49.12940698078702,
        "lon": 162.89395843527345,
        "alt_km": 404.1399506742828,
        "timestamp": "2025-12-21T22:41:40.199545+00:00",
        "meta_object_name": "SILVERSAT",
        "meta_object_id": "1998-067XV",
        "meta_epoch": "2025-12-21T00:44:56.475744",
        "meta_mean_motion": 15.52677939,
        "meta_eccentricity": 0.0003815,
        "meta_inclination": 51.6312,
        "meta_ra_of_asc_node": 101.1583,
        "meta_arg_of_pericenter": 279.3746,
        "meta_mean_anomaly": 80.6813,
        "meta_ephemeris_type": 0,
        "meta_classification_type": "U",
        "meta_norad_cat_id": 66909,
        "meta_element_set_no": 999,
        "meta_rev_at_epoch": 290,
        "meta_bstar": 0.00085685378,
        "meta_mean_motion_dot": 0.00053716,
        "meta_mean_motion_ddot": 0,
        "tle_line1": "1 66909U 98067XV  25355.03120921  .00053716  00000+0  85685-3 0  9994",
        "tle_line2": "2 66909  51.6312 101.1583 0003815 279.3746  80.6813 15.52677939  2905"
      },
      "geometry": {
        "type": "Point",
        "coordinates": [
          162.89395843527345,
          49.12940698078702
        ]
      }
    },
    {
      "type": "Feature",
      "properties": {
        "norad_id": 66910,
        "name": "1998-067XW",
        "group": "stations",
        "lat": 51.299291077832535,
        "lon": 178.04408053536886,
        "alt_km": 404.33738454852573,
        "timestamp": "2025-12-21T22:41:40.199555+00:00",
        "meta_object_name": "1998-067XW",
        "meta_object_id": "1998-067XW",
        "meta_epoch": "2025-12-21T13:03:49.034592",
        "meta_mean_motion": 15.52723142,
        "meta_eccentricity": 0.00040923,
        "meta_inclination": 51.6308,
        "meta_ra_of_asc_node": 98.5841,
        "meta_arg_of_pericenter": 255.5367,
        "meta_mean_anomaly": 104.5169,
        "meta_ephemeris_type": 0,
        "meta_classification_type": "U",
        "meta_norad_cat_id": 66910,
        "meta_element_set_no": 999,
        "meta_rev_at_epoch": 298,
        "meta_bstar": 0.00085387417,
        "meta_mean_motion_dot": 0.00053617,
        "meta_mean_motion_ddot": 0,
        "tle_line1": "1 66910U 98067XW  25355.54431753  .00053617  00000+0  85387-3 0  9999",
        "tle_line2": "2 66910  51.6308  98.5841 0004092 255.5367 104.5169 15.52723142  2987"
      },
      "geometry": {
        "type": "Point",
        "coordinates": [
          178.04408053536886,
          51.299291077832535
        ]
      }
    },
    {
      "type": "Feature",
      "properties": {
        "norad_id": 66911,
        "name": "1998-067XX",
        "group": "stations",
        "lat": 50.38143276101551,
        "lon": -156.59828124580375,
        "alt_km": 402.88859770779436,
        "timestamp": "2025-12-21T22:41:40.199565+00:00",
        "meta_object_name": "1998-067XX",
        "meta_object_id": "1998-067XX",
        "meta_epoch": "2025-12-21T12:59:52.344384",
        "meta_mean_motion": 15.53156659,
        "meta_eccentricity": 0.00038223,
        "meta_inclination": 51.6308,
        "meta_ra_of_asc_node": 98.5657,
        "meta_arg_of_pericenter": 260.7512,
        "meta_mean_anomaly": 99.3046,
        "meta_ephemeris_type": 0,
        "meta_classification_type": "U",
        "meta_norad_cat_id": 66911,
        "meta_element_set_no": 999,
        "meta_rev_at_epoch": 297,
        "meta_bstar": 0.00097482333,
        "meta_mean_motion_dot": 0.00062319,
        "meta_mean_motion_ddot": 0,
        "tle_line1": "1 66911U 98067XX  25355.54157806  .00062319  00000+0  97482-3 0  9992",
        "tle_line2": "2 66911  51.6308  98.5657 0003822 260.7512  99.3046 15.53156659  2971"
      },
      "geometry": {
        "type": "Point",
        "coordinates": [
          -156.59828124580375,
          50.38143276101551
        ]
      }
    },
    {
      "type": "Feature",
      "properties": {
        "norad_id": 66912,
        "name": "1998-067XY",
        "group": "stations",
        "lat": 32.59052510998165,
        "lon": 127.10247715016457,
        "alt_km": 408.48078108095615,
        "timestamp": "2025-12-21T22:41:40.199575+00:00",
        "meta_object_name": "1998-067XY",
        "meta_object_id": "1998-067XY",
        "meta_epoch": "2025-12-21T11:41:25.287072",
        "meta_mean_motion": 15.51934859,
        "meta_eccentricity": 0.0004003,
        "meta_inclination": 51.6317,
        "meta_ra_of_asc_node": 98.9521,
        "meta_arg_of_pericenter": 271.7448,
        "meta_mean_anomaly": 88.3083,
        "meta_ephemeris_type": 0,
        "meta_classification_type": "U",
        "meta_norad_cat_id": 66912,
        "meta_element_set_no": 999,
        "meta_rev_at_epoch": 296,
        "meta_bstar": 0.00071547257,
        "meta_mean_motion_dot": 0.0004353,
        "meta_mean_motion_ddot": 0,
        "tle_line1": "1 66912U 98067XY  25355.48709823  .00043530  00000+0  71547-3 0  9996",
        "tle_line2": "2 66912  51.6317  98.9521 0004003 271.7448  88.3083 15.51934859  2960"
      },
      "geometry": {
        "type": "Point",
        "coordinates": [
          127.10247715016457,
          32.59052510998165
        ]
      }
    }
  ]
}